norad_id,name,regime,epoch,line1,line2,inclination,eccentricity,mean_motion,raan,arg_pericenter,mean_anomaly
19789,COSMOS 1998,LEO,24087.86452187,1 19789U 89009E   24087.86452187  .00000040  00000-0  15666-3 0    17\,2 19789  82.6088 129.4025 0015266 333.5775  26.4537 12.64898747621444,82.6088,0.0015266,12.64898747,129.4025,333.5775,26.4537
19789,COSMOS 1998,LEO,24088.49729922,1 19789U 89009E   24088.49729922  .00000034  00000-0  12728-3 0    10\,2 19789  82.6087 128.9985 0015246 332.0585  27.9688 12.64898773621524,82.6087,0.0015246,12.64898773,128.9985,332.0585,27.9688
19789,COSMOS 1998,LEO,24088.81368789,1 19789U 89009E   24088.81368789  .00000030  00000-0  10348-3 0    18\,2 19789  82.6086 128.7965 0015237 331.3038  28.7214 12.64898781621561,82.6086,0.0015237,12.64898781,128.7965,331.3038,28.7214
19789,COSMOS 1998,LEO,24089.20917376,1 19789U 89009E   24089.20917376  .00000023  00000-0  68880-4 0  1012\,2 19789  82.6085 128.5441 0015223 330.3628  29.6600 12.64898787621796,82.6085,0.0015223,12.64898787,128.5441,330.3628,29.66
19789,COSMOS 1998,LEO,24089.52556243,1 19789U 89009E   24089.52556243  .00000025  00000-0  80162-4 0    17\,2 19789  82.6085 128.3421 0015212 329.6027  30.4182 12.64898821621653,82.6085,0.0015212,12.64898821,128.3421,329.6027,30.4182
19789,COSMOS 1998,LEO,24089.84195114,1 19789U 89009E   24089.84195114  .00000021  00000-0  57355-4 0    12\,2 19789  82.6085 128.1401 0015199 328.8560  31.1631 12.64898813621698,82.6085,0.0015199,12.64898813,128.1401,328.856,31.1631
19789,COSMOS 1998,LEO,24090.55382572,1 19789U 89009E   24090.55382572  .00000019  00000-0  44100-4 0    19\,2 19789  82.6083 127.6856 0015175 327.1639  32.8510 12.64898829621788,82.6083,0.0015175,12.64898829,127.6856,327.1639,32.851
19789,COSMOS 1998,LEO,24091.50299182,1 19789U 89009E   24091.50299182  .00000018  00000-0  37966-4 0    10\,2 19789  82.6082 127.0796 0015144 324.8969  35.1124 12.64898860621906,82.6082,0.0015144,12.6489886,127.0796,324.8969,35.1124
19789,COSMOS 1998,LEO,24091.81938054,1 19789U 89009E   24091.81938054  .00000016  00000-0  26896-4 0    10\,2 19789  82.6081 126.8775 0015131 324.1561  35.8515 12.64898859621949,82.6081,0.0015131,12.64898859,126.8775,324.1561,35.8515
19789,COSMOS 1998,LEO,24092.53125511,1 19789U 89009E   24092.53125511  .00000023  00000-0  67370-4 0    16\,2 19789  82.6080 126.4230 0015107 322.4620  37.5417 12.64898923622033,82.608,0.0015107,12.64898923,126.423,322.462,37.5417
19789,COSMOS 1998,LEO,24093.55951842,1 19789U 89009E   24093.55951842  .00000033  00000-0  11888-3 0    16\,2 19789  82.6078 125.7665 0015075 319.9956  40.0025 12.64898989622161,82.6078,0.0015075,12.64898989,125.7665,319.9956,40.0025
19789,COSMOS 1998,LEO,24093.79680994,1 19789U 89009E   24093.79680994  .00000035  00000-0  12962-3 0    15\,2 19789  82.6077 125.6150 0015073 319.4223  40.5745 12.64899003622193,82.6077,0.0015073,12.64899003,125.615,319.4223,40.5745
19789,COSMOS 1998,LEO,24094.50868466,1 19789U 89009E   24094.50868466  .00000036  00000-0  13843-3 0    17\,2 19789  82.6076 125.1604 0015050 317.7156  42.2775 12.64899007622288,82.6076,0.001505,12.64899007,125.1604,317.7156,42.2775
19789,COSMOS 1998,LEO,24094.82507341,1 19789U 89009E   24094.82507341  .00000037  00000-0  14006-3 0    17\,2 19789  82.6075 124.9584 0015038 316.9674  43.0241 12.64899004622322,82.6075,0.0015038,12.64899004,124.9584,316.9674,43.0241
19789,COSMOS 1998,LEO,24095.53694803,1 19789U 89009E   24095.53694803  .00000043  00000-0  17283-3 0    13\,2 19789  82.6074 124.5038 0015026 315.2381  44.7498 12.64899048622415,82.6074,0.0015026,12.64899048,124.5038,315.2381,44.7498
19789,COSMOS 1998,LEO,24095.77423957,1 19789U 89009E   24095.77423957  .00000043  00000-0  17658-3 0    15\,2 19789  82.6074 124.3523 0015018 314.6730  45.3138 12.64899056622444,82.6074,0.0015018,12.64899056,124.3523,314.673,45.3138
19789,COSMOS 1998,LEO,24096.16972547,1 19789U 89009E   24096.16972547  .00000044  00000-0  18022-3 0  1044\,2 19789  82.6073 124.0998 0015005 313.7256  46.2594 12.64899088622671,82.6073,0.0015005,12.64899088,124.0998,313.7256,46.2594
19789,COSMOS 1998,LEO,24096.56521144,1 19789U 89009E   24096.56521144  .00000045  00000-0  18389-3 0    14\,2 19789  82.6073 123.8473 0014992 312.7826  47.2005 12.64899094622543,82.6073,0.0014992,12.64899094,123.8473,312.7826,47.2005
19789,COSMOS 1998,LEO,24097.51437768,1 19789U 89009E   24097.51437768  .00000043  00000-0  17251-3 0    13\,2 19789  82.6072 123.2412 0014968 310.4873  49.4914 12.64899101622664,82.6072,0.0014968,12.64899101,123.2412,310.4873,49.4914
19789,COSMOS 1998,LEO,24097.83076643,1 19789U 89009E   24097.83076643  .00000041  00000-0  16664-3 0    14\,2 19789  82.6072 123.0392 0014960 309.7242  50.2531 12.64899095622704,82.6072,0.001496,12.64899095,123.0392,309.7242,50.2531
19789,COSMOS 1998,LEO,24098.30534949,1 19789U 89009E   24098.30534949  .00000041  00000-0  16404-3 0  1052\,2 19789  82.6071 122.7362 0014946 308.5804  51.3949 12.64899132622944,82.6071,0.0014946,12.64899132,122.7362,308.5804,51.3949
19789,COSMOS 1998,LEO,24098.54264107,1 19789U 89009E   24098.54264107  .00000037  00000-0  14007-3 0    11\,2 19789  82.6071 122.5846 0014946 307.9885  51.9857 12.64899120622795,82.6071,0.0014946,12.6489912,122.5846,307.9885,51.9857
19789,COSMOS 1998,LEO,24098.77993261,1 19789U 89009E   24098.77993261  .00000035  00000-0  13337-3 0    19\,2 19789  82.6071 122.4331 0014937 307.4248  52.5485 12.64899131622821,82.6071,0.0014937,12.64899131,122.4331,307.4248,52.5485
19789,COSMOS 1998,LEO,24099.49180730,1 19789U 89009E   24099.49180730  .00000030  00000-0  10660-3 0    19\,2 19789  82.6070 121.9786 0014916 305.7079  54.2625 12.64899153622917,82.607,0.0014916,12.64899153,121.9786,305.7079,54.2625
19789,COSMOS 1998,LEO,24099.80819599,1 19789U 89009E   24099.80819599  .00000031  00000-0  11140-3 0    11\,2 19789  82.6070 121.7765 0014905 304.9524  55.0168 12.64899186622957,82.607,0.0014905,12.64899186,121.7765,304.9524,55.0168
19789,COSMOS 1998,LEO,24100.36187621,1 19789U 89009E   24100.36187621  .00000029  00000-0  99017-4 0    16\,2 19789  82.6070 121.4230 0014895 303.6098  56.3573 12.64899223623026,82.607,0.0014895,12.64899223,121.423,303.6098,56.3573
19789,COSMOS 1998,LEO,24100.75736211,1 19789U 89009E   24100.75736211  .00000025  00000-0  79444-4 0    12\,2 19789  82.6069 121.1704 0014888 302.6411  57.3245 12.64899240623078,82.6069,0.0014888,12.6489924,121.1704,302.6411,57.3245
19789,COSMOS 1998,LEO,24101.31104242,1 19789U 89009E   24101.31104242  .00000017  00000-0  35231-4 0    15\,2 19789  82.6069 120.8169 0014873 301.3080  58.6556 12.64899236623143,82.6069,0.0014873,12.64899236,120.8169,301.308,58.6556
19789,COSMOS 1998,LEO,24101.78562556,1 19789U 89009E   24101.78562556  .00000012  00000-0  94112-5 0    11\,2 19789  82.6069 120.5138 0014861 300.1549  59.8071 12.64899238623204,82.6069,0.0014861,12.64899238,120.5138,300.1549,59.8071
19789,COSMOS 1998,LEO,24102.49750018,1 19789U 89009E   24102.49750018  .00000017  00000-0  35742-4 0    10\,2 19789  82.6068 120.0592 0014851 298.4134  61.5462 12.64899316623290,82.6068,0.0014851,12.64899316,120.0592,298.4134,61.5462
19789,COSMOS 1998,LEO,24102.73479172,1 19789U 89009E   24102.73479172  .00000019  00000-0  42852-4 0    18\,2 19789  82.6068 119.9076 0014843 297.8423  62.1165 12.64899337623323,82.6068,0.0014843,12.64899337,119.9076,297.8423,62.1165
19789,COSMOS 1998,LEO,24103.52576360,1 19789U 89009E   24103.52576360  .00000016  00000-0  27362-4 0    19\,2 19789  82.6067 119.4025 0014833 295.9071  64.0492 12.64899369623428,82.6067,0.0014833,12.64899369,119.4025,295.9071,64.0492
19789,COSMOS 1998,LEO,24104.55402722,1 19789U 89009E   24104.55402722  .00000011  00000-0  39556-5 0  1085\,2 19789  82.6066 118.7458 0014815 293.3952  66.5582 12.64899338623736,82.6066,0.0014815,12.64899338,118.7458,293.3952,66.5582
19789,COSMOS 1998,LEO,24105.50319368,1 19789U 89009E   24105.50319368  .00000014  00000-0  16486-4 0    15\,2 19789  82.6065 118.1397 0014805 291.0860  68.8650 12.64899328623676,82.6065,0.0014805,12.64899328,118.1397,291.086,68.865
19789,COSMOS 1998,LEO,24106.53145739,1 19789U 89009E   24106.53145739  .00000016  00000-0  30985-4 0    10\,2 19789  82.6064 117.4830 0014793 288.5609  71.3876 12.64899333623807,82.6064,0.0014793,12.64899333,117.483,288.5609,71.3876
19789,COSMOS 1998,LEO,24106.76874903,1 19789U 89009E   24106.76874903  .00000022  00000-0  60453-4 0    17\,2 19789  82.6064 117.3315 0014786 287.9539  71.9941 12.64899345623836,82.6064,0.0014786,12.64899345,117.3315,287.9539,71.9941
19789,COSMOS 1998,LEO,24107.08513788,1 19789U 89009E   24107.08513788  .00000024  00000-0  69958-4 0  1094\,2 19789  82.6064 117.1294 0014782 287.1821  72.7653 12.64899360624053,82.6064,0.0014782,12.6489936,117.1294,287.1821,72.7653
19789,COSMOS 1998,LEO,24107.48062393,1 19789U 89009E   24107.48062393  .00000034  00000-0  12626-3 0    10\,2 19789  82.6064 116.8769 0014778 286.2370  73.7096 12.64899404623926,82.6064,0.0014778,12.64899404,116.8769,286.237,73.7096
19789,COSMOS 1998,LEO,24107.95520732,1 19789U 89009E   24107.95520732  .00000026  00000-0  85661-4 0    19\,2 19789  82.6064 116.5738 0014769 285.0833  74.8625 12.64899340623985,82.6064,0.0014769,12.6489934,116.5738,285.0833,74.8625
19789,COSMOS 1998,LEO,24108.50888778,1 19789U 89009E   24108.50888778  .00000035  00000-0  12990-3 0    12\,2 19789  82.6064 116.2202 0014761 283.7253  76.2196 12.64899409624055,82.6064,0.0014761,12.64899409,116.2202,283.7253,76.2196
19789,COSMOS 1998,LEO,24109.53715146,1 19789U 89009E   24109.53715146  .00000052  00000-0  22220-3 0  1101\,2 19789  82.6062 115.5635 0014757 281.2055  78.7379 12.64899545624368,82.6062,0.0014757,12.64899545,115.5635,281.2055,78.7379
19789,COSMOS 1998,LEO,24110.48631795,1 19789U 89009E   24110.48631795  .00000054  00000-0  23430-3 0    19\,2 19789  82.6062 114.9574 0014756 278.8826  81.0596 12.64899621624307,82.6062,0.0014756,12.64899621,114.9574,278.8826,81.0596
